GLOBALSTAR M024         
1 25883U 99043A   24293.54730294 -.00000085  00000+0 -72420-3 0  9997
2 25883  52.0000 203.5891 0002225  56.6497 114.9420 11.10160191 88133
GLOBALSTAR M027         
1 25884U 99043B   24293.28021181 -.00000041  00000+0  83960-3 0  9999
2 25884  52.0207 275.3490 0021411 323.3579  36.5749 11.04370169114626
GLOBALSTAR M054         
1 25885U 99043C   24293.43636118 -.00000089  00000+0 -45217-3 0  9995
2 25885  52.0127  82.6966 0006776 124.8315 247.6731 11.39205268 91618
GLOBALSTAR M053         
1 25886U 99043D   24293.50630171 -.00000046  00000+0  66933-3 0  9997
2 25886  52.0023  16.2732 0003447  41.9623  50.5677 11.27659409 92293
GLOBALSTAR M058         
1 25907U 99049A   24293.55175717  .00000014  00000+0  13313-2 0  9999
2 25907  51.9969  31.7271 0002387 157.2388 202.8553 11.93186341512818
GLOBALSTAR M050         
1 25908U 99049B   24293.49405324 -.00000018  00000+0  79353-3 0  9995
2 25908  52.0005  57.5375 0008333 270.5326 183.5521 12.07441367119115
GLOBALSTAR M033         
1 25909U 99049C   24293.45406772  .00000016  00000+0  10405-2 0  9999
2 25909  51.9915 306.1152 0012945 128.5918 231.6091 12.20287778506355
GLOBALSTAR M055         
1 25910U 99049D   24293.36222328 -.00000041  00000+0  45491-3 0  9997
2 25910  52.0036 328.8411 0006997 354.1154   5.9615 12.29411696138667
